#dP2022  4 30  0  0  0.00000000      97 __u+U IGS14 FIT  IAC
## 2207 518400.00000000   900.00000000 59699 0.0000000000000
+  123   C01C02C03C04C06C07C08C09C10C11C12C13C14C16C19C20C21
+        C22C23C24C25C26C27C28C29C30C32C33C34C35C36C37C38C39
+        C40C41C42C43C44C45C46C59C60E01E02E03E04E05E07E08E09
+        E10E11E12E13E14E15E18E19E21E24E25E26E27E30E31E33E34
+        E36G01G02G03G04G05G06G07G08G09G10G12G13G14G15G16G17
+        G18G19G20G21G22G23G24G25G26G27G28G29G30G31G32J02J03
+        J07R01R02R03R04R05R07R08R09R11R12R13R14R15R17R18R19
+        R20R21R22R24  0  0  0  0  0  0  0  0  0  0  0  0  0
++        11 10 10 12  7  7  7  7  7  6  7  7  6  7  6  5  6
++         6  6  6  5  6  5  5  6  5  6  5  6  6  6  6  6  6
++         6  6  6  6  6  6  6 13 12  4  4  4  4  5  4  4  4
++         4  4  4  4  4  4  5  4  4  4  4  4  4  4  4  4  5
++         4  4  3  3  3  3  3  4  3  3  3  3  3  3  4  3  4
++         3  4  3  3  4  3  4  3  3  3  4  3  3  4  4  9  9
++        14  7  6  7  6  6  6  6  6  6  6  6  6  6  6  6  7
++         7  6  7  6  0  0  0  0  0  0  0  0  0  0  0  0  0
%c M  cc GPS ccc cccc cccc cccc cccc ccccc ccccc ccccc ccccc
%c cc cc ccc ccc cccc cccc cccc cccc ccccc ccccc ccccc ccccc
%f  1.2500000  1.025000000  0.00000000000  0.000000000000000
%f  0.0000000  0.000000000  0.00000000000  0.000000000000000
%i    0    0    0    0      0      0      0      0         0
%i    0    0    0    0      0      0      0      0         0
/* INFORMATION & ANALYSIS CENTER (IAC)            FINAL DATA
/* S/V CLOCKS ARE ALIGNED TO GNSS TIME                      
/* G:C1WC2W R:C1PC2P E:C1XC5X C:C2IC6I J:C1CC2S             
/* PCV:IGS14_2196 OL/AL:FES2004  NONE     YN ORB:CoN CLK:CoN
*  2022 04 30 19  0  0.00000000
PC01 -34339.703343  24468.729884   -298.046647    141.591434
PC02   4433.235979  41969.418292    817.404616     73.811925
PC03 -14795.709815  39524.563802   -122.839275   -559.442855
PC04 -39607.495799  14454.041330   -551.351337     -5.617486
PC06  -3230.194256  26228.615648  32918.885969   -105.706935
PC07 -18477.663544  32224.153773 -20100.488606   -107.085205
PC08  -7019.218910  40030.857392 -10959.773156    288.274304
PC09   6300.483770  30206.596479  29307.338597   -744.774777
PC10 -10861.855331  32187.507107 -25010.858341    134.313481
PC11 -17432.366564   5510.968957 -21031.839186    323.992375
PC12 -25195.994158  -8836.476884  -8098.864192   -622.483933
PC13  -1288.671573  41916.530735  -2440.171328    -45.886773
PC14 -23489.102228  15046.428517   1608.863079    465.674949
PC16  -5793.785256  24490.679263  34039.142160    126.096683
PC19  17608.944301 -18807.496706 -10659.111800    873.890575
PC20  25331.566135  -9935.078857   6132.567213   -896.923702
PC21 -18331.770906  -5487.990276 -20298.149077   -207.017903
PC22   -660.464134 -17143.242957 -21994.952550   -973.033829
PC23   3006.012079  27418.147496  -4234.793252   -930.620596
PC24 -16075.074601   4345.218517  22380.686357   -958.760553
PC25  -8247.807918  23638.163294  12300.117313   -743.369558
PC26 -14039.453031 -14688.786380  19130.981003    744.370819
PC27  23790.445806  14594.914432   -592.373321    716.026136
PC28  11019.131309  19719.581370 -16385.953154     61.401321
PC29   8348.117141 -13557.763295  22907.692653    548.440583
PC30  23374.262577    650.585371  15239.931218    497.786951
PC32  18315.192530   5444.650410  20354.785529   -962.633194
PC33 -17551.713019  18937.749312  10624.882138   -966.071003
PC34 -22875.471823    198.066277 -15978.619900   -413.852691
PC35 -10717.081615 -19336.729643  16994.264278    252.885270
PC36   9071.627282 -23123.943962 -12697.850295   -963.805386
PC37  13271.182016  16090.291068 -18517.192404   -916.942891
PC38 -11341.416094  36647.534808 -17312.450095    228.875343
PC39 -11579.730903  21172.273023  34605.539440     34.968219
PC40 -25717.567081  27130.398823 -19692.490193    265.228810
PC41    236.042971  17398.833684  21874.419126   -965.958266
PC42 -25363.210592   9308.785841  -6986.315731   -960.041977
PC43  -9128.795497  13244.552557 -22814.090126   -926.836493
PC44 -24211.369129 -13816.800898    738.124482    644.745972
PC45  -3181.770048 -27364.123478   4519.514735    745.022592
PC46  15765.716502  -6148.157889 -22194.313671   -299.939381
PC59 -32325.915304  27082.449069    601.594333 999999.999999
PC60   7287.096479  41522.993319  -1258.541281     -0.725566
PE01  19316.215120  -3559.784426 -22148.659806   -624.306926
PE02 -19352.023731   3723.883052  22076.238668    296.205870
PE03 -29583.847411   -408.940938  -1109.892771   -553.483094
PE04  21972.647221 -11619.528070 -16060.000770  -1017.930850
PE05 -19937.928013 -12449.126904 -17983.042597   -185.938065
PE07  -1167.366313  17078.786643  24160.196941   -663.881243
PE08 -21698.208355  11758.938911  16359.583208   -521.241702
PE09    915.002899 -16930.176190 -24252.690433   -502.361426
PE10   3088.216812 -20803.351668  20817.816340   -510.039608
PE11  -5322.612999 -25814.378122  13436.946380   3807.160165
PE12  10793.683558 -12804.398651  24399.732487   4636.742670
PE13   4878.728726  25598.921050 -14049.815233    428.377301
PE14  15781.575054  16870.478717 -16868.292345  -1832.619490
PE15 -10782.007777  12682.353328 -24475.016408    748.483257
PE18 -27860.299645  -7940.920968   3245.934513  -1503.058316
PE19  29320.988474   2113.951148   3484.019561  -3893.020155
PE21   9625.480932  15350.881618 -23410.042982   -731.507803
PE24   7221.151825 -26828.939748  10226.022973   -589.692092
PE25  -9424.974962 -15594.946463  23329.450099   -572.282855
PE26  17917.071508  22921.833802   5469.852507  -1091.120758
PE27  -6170.578238  26642.514440 -11315.160915   -288.210874
PE30 -18656.446032  21444.488877   8225.476130   -473.151050
PE31  18198.169280 -22167.123771  -7326.901835   -495.896158
PE33  20019.824293   7669.790952  20417.384306   -457.100082
PE34 -19993.542553  -7411.379443 -20539.364581   -514.728704
PE36 -17555.867960 -23384.239145  -4549.226196   -367.108463
PG01  16237.569288   3642.720243  20496.153018    373.181216
PG02 -14913.543789 -21283.407430  -4423.632315   -653.267521
PG03  19287.943165  -7275.294649  16574.964086   -227.152744
PG04  26201.139275    516.586750  -4585.319985   -171.443018
PG05 -12931.467038  -8187.250631 -21872.150620    -80.187536
PG06  -4422.547908 -24655.443834   8772.018022    285.970136
PG07   9743.763962 -13581.590733 -20127.813210    321.438712
PG08  25602.572487   5826.591263  -5154.993030    -66.101601
PG09  21188.743933  -8039.388113 -13938.709646   -340.133706
PG10 -10084.099551  23117.743372   7982.627884   -397.525332
PG12 -18593.586958   2316.416971  18506.637233   -208.383451
PG13 -20008.537413 -13253.473244 -11713.759989    303.391768
PG14  11856.968537 -22726.699307   6775.808789   -105.883956
PG15 -26162.280289  -3145.862138  -4894.874283    -64.857856
PG16   8461.035142  13009.112421 -21775.718472   -496.714335
PG17   5336.278276 -14237.911636  22211.774940    606.928663
PG18  -9850.050080  13244.585399 -20790.556394    182.205893
PG19  -3052.585271 -15326.071543  21247.381830    151.269919
PG20  -6264.213633 -17737.127760 -18833.802218    515.582738
PG21  18774.119157  12911.640911  14836.176864    160.830699
PG22   6144.620173  15965.276468  20776.769203    251.708062
PG23 -16611.435352  20432.656468  -3035.558184    -18.744565
PG24 -18520.059426  -6952.869266  17611.177902    248.830587
PG25 -19130.128737  15680.010426   9008.526699    318.797524
PG26    248.303742  21134.776668 -15983.753584    202.408429
PG27  17992.270353  12541.393656 -15469.112371    194.508595
PG28   5353.573794 -21679.894090  15065.827617    365.189175
PG29 -22173.505728   5254.143334 -13751.276510   -508.768087
PG30   3305.676502 -21249.537768 -15345.301127   -526.043291
PG31   5765.486260  24946.585678   5947.128502   -175.677358
PG32  -2031.719855  15217.466544  21814.367084   -116.773677
PJ02 -31785.514334  26730.626536  11987.871852     -3.134113
PJ03 -24107.259254  17827.777402 -25054.265112     -1.852697
PJ07 -25372.449605  33683.662211     43.739242      0.013160
PR01  -5147.293948  12973.515919  21362.335288      8.272459
PR02  14780.480932   4964.101259  20256.048580    517.021751
PR03  24092.316463  -5189.082925   6734.201641     55.847256
PR04  19900.761866 -12123.226776 -10349.574929    139.276061
PR05   4814.900249 -12441.003138 -21728.192179     92.071550
PR07 -24144.585351   5611.916371  -5876.179252     34.506473
PR08 -19683.477583  12319.029923  10594.423785    -64.877973
PR09  -7271.263958 -14911.191483  19363.878850     52.584386
PR11  -9634.443180  19508.099123  13335.710196     40.032831
PR12  -2064.114206  24947.031360  -4835.809630     18.199235
PR13   6434.548269  16075.559492 -18747.552215    -21.643048
PR14  11619.035387  -3499.416433 -22425.348038     77.096447
PR15   9689.027720 -19959.661362 -12566.798764     96.460394
PR17  18986.898152   7057.509818  15486.233065    522.055950
PR18   8782.328157  -6121.326306  23166.092984    115.304222
PR19  -4675.240515 -15958.459614  19336.682486   -187.329584
PR20 -18106.497703 -17837.888303   1833.887355    -69.679722
PR21 -18397.949685  -6099.145263 -16598.870684   -297.536155
PR22  -7959.673210   6808.573003 -23272.661052   -180.239481
PR24  18791.365837  17209.169324  -1087.111273     91.546072
EOF
